{
    "links": {
        "self": "http://www.neowsapp.com/rest/v1/neo/3703244?api_key=iIulBulltgU6a56xZRHN4H3l9WmuAYTsLGpBGhQ2"
    },
    "id": "3703244",
    "neo_reference_id": "3703244",
    "name": "(2014 YA42)",
    "designation": "2014 YA42",
    "nasa_jpl_url": "http://ssd.jpl.nasa.gov/sbdb.cgi?sstr=3703244",
    "absolute_magnitude_h": 21.5,
    "estimated_diameter": {
        "kilometers": {
            "estimated_diameter_min": 0.1332155667,
            "estimated_diameter_max": 0.2978790628
        },
        "meters": {
            "estimated_diameter_min": 133.2155666981,
            "estimated_diameter_max": 297.8790627982
        },
        "miles": {
            "estimated_diameter_min": 0.0827762899,
            "estimated_diameter_max": 0.1850934111
        },
        "feet": {
            "estimated_diameter_min": 437.0589598459,
            "estimated_diameter_max": 977.2935443908
        }
    },
    "is_potentially_hazardous_asteroid": false,
    "close_approach_data": [
        {
            "close_approach_date": "2014-12-09",
            "close_approach_date_full": "2014-Dec-09 01:03",
            "epoch_date_close_approach": 1418086980000,
            "relative_velocity": {
                "kilometers_per_second": "17.4153871579",
                "kilometers_per_hour": "62695.3937682607",
                "miles_per_hour": "38956.4795333951"
            },
            "miss_distance": {
                "astronomical": "0.1085144762",
                "lunar": "42.2121312418",
                "kilometers": "16233534.503685694",
                "miles": "10087050.5978388172"
            },
            "orbiting_body": "Earth"
        }
    ],
    "orbital_data": {
        "orbit_id": "7",
        "orbit_determination_date": "2017-04-06 08:36:35",
        "first_observation_date": "2014-12-22",
        "last_observation_date": "2015-01-21",
        "data_arc_in_days": 30,
        "observations_used": 21,
        "orbit_uncertainty": "7",
        "minimum_orbit_intersection": ".105896",
        "jupiter_tisserand_invariant": "4.260",
        "epoch_osculation": "2459000.5",
        "eccentricity": ".3207644251138963",
        "semi_major_axis": "1.538932870656468",
        "inclination": "31.40833507319912",
        "ascending_node_longitude": "79.97738836130036",
        "orbital_period": "697.3132875000522",
        "perihelion_distance": "1.045297953111468",
        "perihelion_argument": "324.510883436824",
        "aphelion_distance": "2.032567788201469",
        "perihelion_time": "2459060.380189874027",
        "mean_anomaly": "329.0858201886078",
        "mean_motion": ".5162672308893483",
        "equinox": "J2000",
        "orbit_class": {
            "orbit_class_type": "AMO",
            "orbit_class_description": "Near-Earth asteroid orbits similar to that of 1221 Amor",
            "orbit_class_range": "1.017 AU < q (perihelion) < 1.3 AU"
        }
    },
    "is_sentry_object": false
}